NORAD_CAT_ID,OBJECT_NAME,OBJECT_TYPE,EPOCH,MEAN_MOTION,ECCENTRICITY,INCLINATION,RA_OF_ASC_NODE,ARG_OF_PERICENTER,MEAN_ANOMALY,BSTAR,MEAN_MOTION_DOT,MEAN_MOTION_DDOT,TLE_LINE0,TLE_LINE1,TLE_LINE2,SEMIMAJOR_AXIS,PERIOD,APOGEE,PERIGEE,DECAYED
49445.0,STARLINK-3122,PAYLOAD,2024-05-11 23:01:56,15.08717901,0.0001506,53.2169,332.585,89.8451,270.2714,0.0014869,0.00023376,0.0,0 STARLINK-3122,1 49445U 21104AP  24132.95968119  .00023376  00000-0  14869-2 0  9995,2 49445  53.2169 332.5850 0001506  89.8451 270.2714 15.08717901138113,6918.254,95.445,541.161,539.077,0.0
49445.0,STARLINK-3122,PAYLOAD,2024-05-12 19:42:00,15.08800344,0.0001097,53.2158,328.7184,93.8275,266.2843,0.0021054,0.00033342,0.0,0 STARLINK-3122,1 49445U 21104AP  24133.82084226  .00033342  00000-0  21054-2 0  9998,2 49445  53.2158 328.7184 0001097  93.8275 266.2843 15.08800344139328,6918.002,95.44,540.626,539.108,0.0
49445.0,STARLINK-3122,PAYLOAD,2024-05-12 22:52:47,15.08820138,0.0001411,53.2165,328.1207,87.1048,273.0106,0.0013378,0.00021056,0.0,0 STARLINK-3122,1 49445U 21104AP  24133.95332332  .00021056  00000-0  13378-2 0  9995,2 49445  53.2165 328.1207 0001411  87.1048 273.0106 15.08820138138263,6917.941,95.439,540.782,538.83,0.0
49445.0,STARLINK-3122,PAYLOAD,2024-05-13 19:32:46,15.08876021,0.0001291,53.2172,324.2563,79.0646,281.0491,0.0014554,0.00022973,0.0,0 STARLINK-3122,1 49445U 21104AP  24134.81443195  .00022973  00000-0  14554-2 0  9997,2 49445  53.2172 324.2563 0001291  79.0646 281.0491 15.08876021139475,6917.77,95.435,540.528,538.742,0.0
49445.0,STARLINK-3122,PAYLOAD,2024-05-14 13:02:00,15.08881706,0.0003647,53.2178,320.986,74.7028,285.4367,0.0014895,0.00023526,0.0,0 STARLINK-3122,1 49445U 21104AP  24135.54306017  .00023526  00000-0  14895-2 0  9992,2 49445  53.2178 320.9860 0003647  74.7028 285.4367 15.08881706139585,6917.753,95.435,542.141,537.095,0.0
49445.0,STARLINK-3122,PAYLOAD,2024-05-14 19:23:32,15.08867177,0.0001448,53.2181,319.7961,84.4499,275.6659,0.00045514,6.968e-05,0.0,0 STARLINK-3122,1 49445U 21104AP  24135.80801713  .00006968  00000-0  45514-3 0  9998,2 49445  53.2181 319.7961 0001448  84.4499 275.6659 15.08867177139620,6917.797,95.436,540.664,538.661,0.0
49445.0,STARLINK-3122,PAYLOAD,2024-05-15 04:55:50,15.08881842,0.0001534,53.2195,318.0106,74.4557,285.6605,0.0011035,0.00017338,0.0,0 STARLINK-3122,1 49445U 21104AP  24136.20545017  .00017338  00000-0  11035-2 0  9998,2 49445  53.2195 318.0106 0001534  74.4557 285.6605 15.08881842138602,6917.752,95.435,540.679,538.556,0.0
49445.0,STARLINK-3122,PAYLOAD,2024-05-15 19:14:19,15.08842379,0.0001555,53.218,315.3362,66.5619,293.5536,0.0017356,0.00027444,0.0,0 STARLINK-3122,1 49445U 21104AP  24136.80161646  .00027444  00000-0  17356-2 0  9997,2 49445  53.2180 315.3362 0001555  66.5619 293.5536 15.08842379139776,6917.873,95.437,540.814,538.662,0.0
49445.0,STARLINK-3122,PAYLOAD,2024-05-16 04:46:38,15.0886511,0.0001378,53.2171,313.5517,74.9218,285.1926,0.0019113,0.00030282,0.0,0 STARLINK-3122,1 49445U 21104AP  24137.19905202  .00030282  00000-0  19113-2 0  9991,2 49445  53.2171 313.5517 0001378  74.9218 285.1926 15.08865110138754,6917.804,95.436,540.622,538.715,0.0
49445.0,STARLINK-3122,PAYLOAD,2024-05-17 04:37:24,15.08868057,6.51e-05,53.2191,309.0882,71.8773,288.229,0.00123,0.00019357,0.0,0 STARLINK-3122,1 49445U 21104AP  24138.19264242  .00019357  00000-0  12300-2 0  9995,2 49445  53.2191 309.0882 0000651  71.8773 288.2290 15.08868057139983,6917.795,95.436,540.11,539.209,0.0
49445.0,STARLINK-3122,PAYLOAD,2024-05-17 10:58:58,15.08820327,0.0003517,53.216,307.9041,80.7134,279.4256,0.0013446,0.00021166,0.0,0 STARLINK-3122,1 49445U 21104AP  24138.45761840  .00021166  00000-0  13446-2 0  9993,2 49445  53.2160 307.9041 0003517  80.7134 279.4256 15.08820327140026,6917.941,95.439,542.239,537.372,0.0
49445.0,STARLINK-3122,PAYLOAD,2024-05-17 17:20:30,15.08826495,0.0002832,53.2157,306.7153,80.6524,279.4788,0.0016361,0.00025838,0.0,0 STARLINK-3122,1 49445U 21104AP  24138.72257991  .00025838  00000-0  16361-2 0  9999,2 49445  53.2157 306.7153 0002832  80.6524 279.4788 15.08826495138988,6917.922,95.438,541.746,537.828,0.0
49445.0,STARLINK-3122,PAYLOAD,2024-05-18 10:49:45,15.08855268,0.0002595,53.209,303.44,94.9617,265.1672,0.0016794,0.00026553,0.0,0 STARLINK-3122,1 49445U 21104AP  24139.45122035  .00026553  00000-0  16794-2 0  9995,2 49445  53.2090 303.4400 0002595  94.9617 265.1672 15.08855268139097,6917.834,95.437,541.494,537.904,0.0
49445.0,STARLINK-3122,PAYLOAD,2024-05-18 20:22:03,15.08868295,0.0001861,53.2152,301.6605,81.4199,278.7004,0.0013715,0.00021624,0.0,0 STARLINK-3122,1 49445U 21104AP  24139.84865469  .00021624  00000-0  13715-2 0  9997,2 49445  53.2152 301.6605 0001861  81.4199 278.7004 15.08868295140235,6917.794,95.436,540.946,538.372,0.0
49445.0,STARLINK-3122,PAYLOAD,2024-05-19 04:18:58,15.08868647,0.0001588,53.2173,300.169,104.2932,255.8236,0.00084409,0.00013182,0.0,0 STARLINK-3122,1 49445U 21104AP  24140.17984763  .00013182  00000-0  84409-3 0  9993,2 49445  53.2173 300.1690 0001588 104.2932 255.8236 15.08868647140280,6917.793,95.436,540.756,538.559,0.0
49445.0,STARLINK-3122,PAYLOAD,2024-05-19 13:51:18,15.08812633,0.0001687,53.2149,298.3886,108.7484,251.3691,-0.00097408,-0.00015746,0.0,0 STARLINK-3122,1 49445U 21104AP  24140.57730123 -.00015746  00000-0 -97408-3 0  9999,2 49445  53.2149 298.3886 0001687 108.7484 251.3691 15.08812633139265,6917.964,95.439,540.996,538.662,0.0
49445.0,STARLINK-3122,PAYLOAD,2024-05-19 17:02:05,15.08807806,0.0001828,53.2172,297.7919,123.1733,236.9435,0.00063343,9.799e-05,0.0,0 STARLINK-3122,1 49445U 21104AP  24140.70978525  .00009799  00000-0  63343-3 0  9994,2 49445  53.2172 297.7919 0001828 123.1733 236.9435 15.08807806140360,6917.979,95.44,541.108,538.579,0.0
49445.0,STARLINK-3122,PAYLOAD,2024-05-20 13:42:06,15.08854225,0.0001655,53.217,293.9263,121.3964,238.719,0.0019003,0.00030097,0.0,0 STARLINK-3122,1 49445U 21104AP  24141.57091171  .00030097  00000-0  19003-2 0  9991,2 49445  53.2170 293.9263 0001655 121.3964 238.7190 15.08854225140491,6917.837,95.437,540.847,538.557,0.0
49445.0,STARLINK-3122,PAYLOAD,2024-05-21 13:32:53,15.08838189,0.0001428,53.2178,289.4654,105.43,254.685,0.00047906,7.344e-05,0.0,0 STARLINK-3122,1 49445U 21104AP  24142.56450660  .00007344  00000-0  47906-3 0  9996,2 49445  53.2178 289.4654 0001428 105.4300 254.6850 15.08838189140646,6917.886,95.438,540.739,538.763,0.0
49445.0,STARLINK-3122,PAYLOAD,2024-05-21 16:43:39,15.08836884,0.0001246,53.2182,288.8724,94.3718,265.7417,0.0013403,0.00021105,0.0,0 STARLINK-3122,1 49445U 21104AP  24142.69698922  .00021105  00000-0  13403-2 0  9990,2 49445  53.2182 288.8724 0001246  94.3718 265.7417 15.08836884139582,6917.89,95.438,540.617,538.893,0.0
49445.0,STARLINK-3122,PAYLOAD,2024-05-22 10:12:51,15.08927663,8.37e-05,53.2166,285.6008,56.5387,303.5685,0.0025536,0.00040685,0.0,0 STARLINK-3122,1 49445U 21104AP  24143.42559942  .00040685  00000-0  25536-2 0  9994,2 49445  53.2166 285.6008 0000837  56.5387 303.5685 15.08927663140778,6917.612,95.432,540.056,538.898,0.0
49445.0,STARLINK-3122,PAYLOAD,2024-05-22 19:45:10,15.08891013,0.000352,53.2173,283.817,234.9459,125.1203,0.0021459,0.0003408,0.0,0 STARLINK-3122,1 49445U 21104AP  24143.82303531  .00034080  00000-0  21459-2 0  9991,2 49445  53.2173 283.8170 0003520 234.9459 125.1203 15.08891013140830,6917.724,95.434,542.025,537.154,0.0
49445.0,STARLINK-3122,PAYLOAD,2024-05-23 13:14:27,15.08819575,0.0001155,53.2177,280.5453,101.8214,258.2907,0.0011699,0.0001837,0.0,0 STARLINK-3122,1 49445U 21104AP  24144.55170760  .00018370  00000-0  11699-2 0  9997,2 49445  53.2177 280.5453 0001155 101.8214 258.2907 15.08819575140949,6917.943,95.439,540.607,539.009,0.0
49445.0,STARLINK-3122,PAYLOAD,2024-05-23 14:49:50,15.08824386,0.000137,53.2169,280.249,97.3867,262.7281,0.0012756,0.00020063,0.0,0 STARLINK-3122,1 49445U 21104AP  24144.61794868  .00020063  00000-0  12756-2 0  9992,2 49445  53.2169 280.2490 0001370  97.3867 262.7281 15.08824386139871,6917.928,95.439,540.741,538.845,0.0
49445.0,STARLINK-3122,PAYLOAD,2024-05-23 19:36:00,15.08841279,0.0001429,53.2172,279.3564,88.2708,271.8448,0.0016509,0.00026085,0.0,0 STARLINK-3122,1 49445U 21104AP  24144.81666901  .00026085  00000-0  16509-2 0  9990,2 49445  53.2172 279.3564 0001429  88.2708 271.8448 15.08841279139904,6917.876,95.437,540.73,538.753,0.0
49445.0,STARLINK-3122,PAYLOAD,2024-05-24 13:05:14,15.0884383,0.0001463,53.2158,276.0828,120.813,239.3006,0.00083078,0.0001296,0.0,0 STARLINK-3122,1 49445U 21104AP  24145.54530965  .00012960  00000-0  83078-3 0  9994,2 49445  53.2158 276.0828 0001463 120.8130 239.3006 15.08843830141092,6917.869,95.437,540.746,538.722,0.0
49445.0,STARLINK-3122,PAYLOAD,2024-05-24 14:40:37,15.08841413,0.0001466,53.2173,275.7864,97.393,262.7229,0.00040409,6.149e-05,0.0,0 STARLINK-3122,1 49445U 21104AP  24145.61155087  .00006149  00000-0  40409-3 0  9993,2 49445  53.2173 275.7864 0001466  97.3930 262.7229 15.08841413140028,6917.876,95.437,540.755,538.727,0.0
49445.0,STARLINK-3122,PAYLOAD,2024-05-24 17:51:24,15.08849885,0.0001529,53.2161,275.1912,103.1261,256.9902,0.00054783,8.444e-05,0.0,0 STARLINK-3122,1 49445U 21104AP  24145.74402922  .00008444  00000-0  54783-3 0  9990,2 49445  53.2161 275.1912 0001529 103.1261 256.9902 15.08849885140042,6917.85,95.437,540.773,538.657,0.0
49445.0,STARLINK-3122,PAYLOAD,2024-05-25 12:56:01,15.08838219,0.0001345,53.2152,271.6196,132.4841,227.6265,0.00027978,4.167e-05,0.0,0 STARLINK-3122,1 49445U 21104AP  24146.53890864  .00004167  00000-0  27978-3 0  9998,2 49445  53.2152 271.6196 0001345 132.4841 227.6265 15.08838219141241,6917.886,95.438,540.681,538.82,0.0
49445.0,STARLINK-3122,PAYLOAD,2024-05-25 14:31:24,15.08837365,0.0001477,53.2157,271.3203,140.8113,219.2987,0.0002097,3.051e-05,0.0,0 STARLINK-3122,1 49445U 21104AP  24146.60514876  .00003051  00000-0  20970-3 0  9998,2 49445  53.2157 271.3203 0001477 140.8113 219.2987 15.08837365140173,6917.888,95.438,540.775,538.732,0.0
